#aV2015  2 20  0  0  0.00000000     288 DD+AD WGS84 FIT  NGA
## 1832 432000.00000000   300.00000000 57073 0.0000000000000
+   31     1  2  3  4  5  6  7  8  9 10 11 12 13 14 15 16 17
+         18 19 20 21 22 23 24 25 27 28 29 30 31 32  0  0  0
+          0  0  0  0  0  0  0  0  0  0  0  0  0  0  0  0  0
+          0  0  0  0  0  0  0  0  0  0  0  0  0  0  0  0  0
+          0  0  0  0  0  0  0  0  0  0  0  0  0  0  0  0  0
++         2  2  2  2  2  2  2  2  2  2  2  2  2  2  2  2  2
++         2  2  2  2  2  2  2  2  2  2  2  2  2  2  0  0  0
++         0  0  0  0  0  0  0  0  0  0  0  0  0  0  0  0  0
++         0  0  0  0  0  0  0  0  0  0  0  0  0  0  0  0  0
++         0  0  0  0  0  0  0  0  0  0  0  0  0  0  0  0  0
%c cc cc ccc ccc cccc cccc cccc cccc ccccc ccccc ccccc ccccc
%c cc cc ccc ccc cccc cccc cccc cccc ccccc ccccc ccccc ccccc
%f  0.0000000  0.000000000  0.00000000000  0.000000000000000
%f  0.0000000  0.000000000  0.00000000000  0.000000000000000
%i    0    0    0    0      0      0      0      0         0
%i    0    0    0    0      0      0      0      0         0
/*      NGA, ST. LOUIS,MO.                                  
/*   EPHEMERIS COMPUTED FROM  1 DAYS OF DATA                
/*   EPOCHA SMOOTHER                                       
/* CCCCCCCCCCCCCCCCCCCCCCCCCCCCCCCCCCCCCCCCCCCCCCCCCCCCCCCCC
*  2015  2 20  4 45  0.00000000
P  1  13221.323982 -14702.116615  17601.057484     -8.814641                    
V  1    311.246260  22575.391138  18738.796050      0.004289                    
P  2 -14051.228159 -10597.758198 -19675.410704    549.035153                    
V  2   1874.885485 -25641.349669  11789.782037      0.022972                    
P  3  22758.283776 -13499.831360  -2568.643465    218.643135                    
V  3   4178.722582   1033.518047  31474.156680      0.200489                    
P  4  15453.396652  -3868.304991  20906.826342     -7.510579                    
V  4   -429.319933  27402.371460   5569.382207     -0.007516                    
P  5 -22273.453625   -447.875342 -14649.141237   -276.722356                    
V  5  15411.778887 -10432.549533 -23022.459873      0.050553                    
P  6  -6908.022297 -22834.177589 -11698.399868     87.156781                    
V  6   3142.551396 -14688.234483  26810.329237      0.111308                    
P  7   7082.285886 -24268.458466  -7423.346224    441.725015                    
V  7   1844.605332   9823.045631 -30307.380348      0.031035                    
P  8  11079.267959  12792.097754 -20440.146343     17.811511                    
V  8  -5274.441232  25613.142517  12444.751383      0.002513                    
P  9   5143.489326 -14711.763052 -21515.235167    -92.149633                    
V  9  23111.509501  14554.491461  -4439.512533     -0.111530                    
P 10  -6496.355544 -14418.618938 -21712.316381   -164.138359                    
V 10  24125.836429 -11580.367852    904.152004     -0.016703                    
P 11  14433.562473  -8422.855151  20108.257846   -559.075888                    
V 11   8334.916202  25743.421865   4824.127201     -0.026651                    
P 12 -24141.447780  10776.777955     99.521703    270.736428                    
V 12   -651.818248  -2006.311798  32523.600422      0.029699                    
P 13 -22415.835504 -11741.625798   7710.417821    -89.856823                    
V 13  -6215.156049  -8198.807104 -30082.960362     -0.035048                    
P 14  12681.144160  20236.807062  12010.370686     85.782975                    
V 14 -12980.768495  -7448.622666  26626.474645     -0.035107                    
P 15 -21280.697650   1100.630449  15959.119095   -233.323529                    
V 15 -16367.048120 -12355.390571 -20540.581079     -0.022298                    
P 16  22076.685692   1313.435015 -15048.577450   -154.773769                    
V 16 -16837.470701   8419.959871 -23699.407313      0.033277                    
P 17 -11037.180225 -19899.991478  14167.429455   -156.885508                    
V 17  15088.916798   8808.560239  24424.468154     -0.020649                    
P 18  -7750.504681  18844.230966  17357.817104    380.859795                    
V 18 -20005.719796   7854.904367 -18272.198054      0.027675                    
P 19  22092.637585   5422.474774  13905.985391   -501.211790                    
V 19  12784.998294  12450.848093 -24404.915188     -0.013976                    
P 20   1474.828242 -18033.821638 -19627.864037    291.633481                    
V 20  21962.911780 -11286.934086  12226.219203      0.040577                    
P 21  -2786.965858  26031.713002  -2238.556007   -418.550483                    
V 21  -3883.590648  -3873.610368 -31233.657413     -0.040649                    
P 22   5301.656600  15350.057497  21226.044795    320.292761                    
V 22 -23774.806940  11969.035950  -2920.952665      0.042215                    
P 23  15681.103462  -6995.692343 -20234.028603    -90.003067                    
V 23  21085.118567  15111.453287  10619.797591     -0.026284                    
P 24 -14085.645667  11686.990003  19168.388321    -43.747495                    
V 24   -435.226743 -24508.281098  14741.022021     -0.005871                    
P 25 -16677.500324  17112.101498 -11506.624276     -5.094654                    
V 25 -13872.800837   4726.960771  27488.366915     -0.028674                    
P 27  23478.156244  11777.838001   4268.076254     52.686877                    
V 27   3154.956378   5072.610855 -31193.360145      0.026376                    
P 28    904.652297 -15965.689923  21814.003092    420.749861                    
V 28  24309.287736  -9735.171402  -8467.650194      0.026205                    
P 29  -9095.516001  11874.914997 -21913.745448    593.214537                    
V 29 -22426.123367 -16547.473014    381.408502      0.023113                    
P 30   1272.450595 -26316.224855   3150.465394    -83.957023                    
V 30   3452.402602  -3590.739760 -31369.135008      0.015472                    
P 31   7736.621645  20832.193047 -14147.314989    322.900884                    
V 31  -3669.585618  18050.332516  24666.667666     -0.008614                    
P 32  24273.002953  -2159.677291   9864.031341   -219.432882                    
V 32 -10569.215644   7852.670379  28245.410696      0.091503                    
EOF
